"Id","Login","Email","Profile Name","Auth Code","Emails xml","Emails Html","Emails Extra","First Name","Middle Name","Last Name","Phone Number","Data Source"," marketer_net_po","wants_data_printed","comments","Stating Balance","Current Balance","Rate","Text Body 1","Text Body 2","Text Body 3","Variable Data 4","Variable Data 5","Variable Data 6","Variable Data 7","Variable Data 8","Variable Data 9","Address","Address2","City","State","Zip"
267,"MM267 Dave's Jackson Nissan",,"MM267 Dave's Jackson Nissan",,,,"nhamdan63@yahoo.com; jtumen@greatmailers.com; gail@greatmailers.com; rachelh@greatmailers.com","Dave's Jackson Nissan","www.preapprovalonline.com/davesjackson","Ask for Nasser ""Nas"" Hamdan","888-795-7521","seekerinc",,"yes",,,,,,,,,,,,,,"3201 West Michigan Avenue",,"Jackson","Michigan",49203
266,"BB266 Honda City",,"BB266 Honda City",,,,"crasmussen@blautogroup.com; btobino200@gmail.com; elisenstar@gmail.com","Honda City","www.autoappnow.com authorization Code: 000722HC22",,"888-279-4439","seekerinc",,"yes","-888-279-4439 	HONDA CITY 	1-708-910-8704 ",,,,,,,,,,,,,"4950 S Pulaski Rd",,"Chicago","IL",60632
265,"MM265 Toyota of Maryland ",,"MM265 Toyota of Maryland ",,,,"michaelh@toyotamd.com; gail@greatmailers.com; jtumen@greatmailers.com; rachelh@greatmailers.com; whiteoakad@verizon.net; mikem@toyotamd.com","Toyota of Southern Maryland","www.preapprovalonline.com/toyotamd",,"888-273-2493","seekerinc",,"yes",,,,,,,,,,,,,,"22500 Three Notch Road",,"Lexington Park","Maryland",20653
264,"MM264 Battlefield Ford",,"MM264 Battlefield Ford",,,,"gail@greatmailers.com; jtumen@greatmailers.com; rachelh@greatmailers.com; caroledwards@battlefieldford.com;","Battlefield Ford","www.preapprovalonline.com/battlefieldford",,"888-223-8364","seekerinc",,"yes",,,,,,,,,,,,,,"8980 Mathis Avenue",,"Manassas","Virginia",20110
263,"BB263 Payne Chevrolet",,"BB263 Payne Chevrolet",,,,"jpayne@paynechevrolet.com; wewsonya@yahoo.com; sonya@btobino.com; btobino200@gmail.com","Payne Chevrolet","www.autoappnow.com Authorization Code: 000722PCTL","Ask for Sonya Sherman","888-519-7786","seekerinc",,"yes","888-519-7786",,,,,,,,,,,,,"2807 Memorial BLVD",,"Springfield","TN",37172
262,"BB262 Monster Auto Credit MD",,"BB262 Monster Auto Credit MD",,,,"jhairat@monsterautocredit.com; ajalali@monsterautocredit.com; hhanifi@aol.com; monsterautocredit@btobcapitalllp.com; jhairat@monsterautocredit.com; ewatson@btobino.com

","The Crediplex Authorized Dealer in your area","www.autoappnow.com authorization code: 000447MACD",,"888-751-5971","seekerinc",,"yes","301-316-2666 1-888-751-5971",,,,,,,,,,,,,"4732 St Barnabus Rd.",,"Temple Hills","MD",20748
261,"MM261 Freedom Kia",,"MM261 Freedom Kia",,,,"gail@greatmailers.com; rachelh@greatmailers.com; jtumen@greatmailers.com; wvfreedomkia@yahoo.com","Freedom Kia","www.preapprovalonline.com/freedomkia",,"866-602-8709","seekerinc",,"yes",,,,,,,,,,,,,,"696 Fairmont Rd.",,"Morgantown","WV",26501
260,"MM260 Tri Star Ford McKeesport",,"MM260 Tri Star Ford McKeesport",,,,"jbowlin@tristarmotors.com; bob@tristarmotors.com; gail@greatmailers.com; rachelh@greatmailers.com; jtumen@greatmailers.com","Tri Star Ford McKeesport","www.preapprovalonline.com/tristar","Ask for Jason or Bob at Ext. 204","866-789-1446","seekerinc",,"yes",,,,,,,,,,,,,,"4201 Walnut St.",,"McKeesport","PA",15132
259,"MM259 Battlefield Automotive Ford Toyota Chevrolet Mercury",,"MM259 Battlefield Automotive Ford Toyota Chevrolet Mercury",,,,"gnrvpowell@aol.com; jtumen@greatmailers.com; gail@greatmailers.com; rachelh@greatmailers.com","Battlefield Automotive Ford Toyota Chevrolet Mercury","www.preapprovalonline.com/battlefield",,"866-579-7076","seekerinc",,"yes",,,,,,,,,,,,,,"10463 James Monroe Highway",,"Culpeper","VA",22701
258,"MM258 Dave's Adrian Dodge C J Pre Owned",,"MM258 Dave's Adrian Dodge C J Pre Owned",,,,"eric@adriandodge.com; mo@adriandodge.com; gail@greatmailers.com; jtumen@greatmailers.com; rachelh@greatmailers.com","Dave's Adrian Dodge C J Pre Owned","www.preapprovalonline.com/davespreowned",,"866-602-1757","seekerinc",,"yes",,,,,,,,,,,,,,"2703 Michigan Avenue",,"Clinton","MI",49236
257,"MM257 Dave's Adrian Dodge Chrysler Jeep ",,"MM257 Dave's Adrian Dodge Chrysler Jeep ",,,,"eric@adriandodge.com; jtumen@greatmailers.com; gail@greatmailers.com; rachelh@greatmailers.com; mo@adriandodge.com","Dave's Adrian Dodge Chrysler Jeep","www.preapprovalonline.com/davesadrian",,"866-599-8427","seekerinc",,"yes",,,,,,,,,,,,,,"1211 East US Highway 223",,"Adrian","MI",49221
256,"MM256 Altavista Motors",,"MM256 Altavista Motors",,,,"kcolls@altavistamotors.com; gail@greatmailers.com; jtumen@greatmailers.com; rachelh@greatmailers.com","Altavista Motors","www.preapprovalonline.com/altavista","Ask for Keith Colls at Ext. 211","866-579-0321","seekerinc",,"yes",,,,,,,,,,,,,,"1163 Wards Road (Rt. 29)",,"Altavista","Virginia",24517
255,"MM255 Bert Smith New & Pre-Owned Value Center",,"MM255 Bert Smith New & Pre-Owned Value Center",,,,"atanski@bertsmith.com; jhayes@bertsmith.com; gail@greatmailers.com; jtumen@greatmailers.com; Guspros@aol.com; rachelh@greatmailers.com","Bert Smith New & Pre-Owned Value Center","www.preapprovalonline.com/bertsmith","Ask for Al Tanski or John Hayes at Ext. 475","866-585-3263","seekerinc",,"yes",,,,,,,,,,,,,,"3333 38th Ave. N. & 34th Street (U.S.19)",,"St. Petersburg","FL",33713
254,"MM254 Lee Dodge",,"MM254 Lee Dodge",,,,"gail@greatmailers.com; tmgmedia@gmail.com; jtumen@greatmailers.com; rachelh@greatmailers.com","Lee Dodge","www.preapprovalonline.com/leedodge",,"877-649-6910","seekerinc",,"yes",,,,,,,,,,,,,,"5080 Jericho Turnpike",,"Commack","NY",11725
253,"MM253 Freehold Pontiac Buick GMC",,"MM253 Freehold Pontiac Buick GMC",,,,"bconboy@greatmailers.com; jtumen@greatmailers.com; gail@greatmailers.com; rachelh@greatmailers.com; billt@freeholdautos.com; b.conboy@yahoo.com","Freehold Pontiac Buick GMC","www.preapprovalonline.com/freehold","Ask for Bill Tompkins at Ext. 131","888-894-3445","seekerinc",,"yes",,,,,,,,,,,,,,"4404 Rt. 9 South",,"Freehold","NJ",7728
252,"BB252 Nation Auto",,"BB252 Nation Auto",,,,"kcautomaxx@hotmail.com; terryldixon@yahoo.com","Contact The Crediplex Authorized Dealer in Your Area","www.autoappnow.com authorization Code:000420NATL",,"888-525-5684","seekerinc",,"yes","888-525-5684 	NATION AUTO 	1-240-619-3500

10079085-179085-09",,,,,,,,,,,,,"4533 Saint Barnabas Rd",,"Temple Hills ","MD",20748
251,"BB251 Nelson Mazda Rivergate",,"BB251 Nelson Mazda Rivergate",,,,"mbartlett@nelsonmazda.com; ewatson@btobino.com","Nelson Mazda Rivergate","www.autoappnow.com Authorization Code: 00422NMRG","Ask for Stephonie","888-874-7520","seekerinc",,"yes",,,,,,,,,,,,,,"1536 Gallatin Pike N",,"Madison","TN",37115
250,"MM250 Outten Chevrolet Pontiac Buick",,"MM250 Outten Chevrolet Pontiac Buick",,,,"stacis@outtencars.com; jtumen@greatmailers.com; gail@greatmailers.com; rachelh@greatmailers.com","Outten Chevrolet Pontiac Buick","www.preapprovalonline.com/outten",,"888-892-4237","seekerinc",,"yes",,,,,,,,,,,,,,"1080 South 4th Street",,"Hamburg","PA",19526
249,"BB249 Peter Farrell Supercars",,"BB249 Peter Farrell Supercars",,,,"parris1001@yahoo.com; pfarrell@pfs.cc; ewatson@btobino.com","Peter Farrell Supercars","www.autoappnow.com Authorization Code 00406PFSC",,"888-809-0195","marketernet",,"yes","1-888-809-0195 	PETER FARRELL SUPERCARS 	1-703-368-7959 peterf01/peterf01

1-888-809-0195 	PETER FARRELL SUPERCARS 	1-571-277-4339  ",,,,,,,,,,,,,"8511 Manassas Drive",,"Manassas Park","VA",20111
248,"BB248 Homer SkeltonWolfchase ",,"BB248 Homer SkeltonWolfchase ",,,,"kennydrew@homerskeltonwolfchase.com; craigw@btobino.com","Homer Skelton Wolfchase","www.autoappnow.com Authorization Code: 000741HS",,"888-601-6262","seekerinc",248,"yes","1-888-601-6262 	HOMER SKELTON WOLFCHASE 	1-901-281-3542",,,,,,,,,,,,,"3020 N Germantown Rd",,"Bartlett","TN",38133
247,"MM247 Tacoma Nissan/Subaru",,"MM247 Tacoma Nissan/Subaru",,,,"jeffp@brucetitus.com; tonyg@bbackpromotions.com; gail@greatmailers.com; rachelh@greatmailers.com; jtumen@greatmailers.com; courtneyt@brucetitus.com","Tacoma Nissan/Subaru","www.preapprovalonline.com/tacoma",,"888-229-8424","seekerinc",,"yes",,,,,,,,,,,,,,"38th & S. Tacoma Way",,"Tacoma","WA",98409
246,"MM246 Marstaller Lincoln Mercury Jeep",,"MM246 Marstaller Lincoln Mercury Jeep",,,,"robwphil@hotmail.com; gail@greatmailers.com; jtumen@greatmailers.com; rachelh@greatmailers.com; tonyg@bbackpromotions.com","Marstaller Lincoln Mercury Jeep","www.preapprovalonline.com/marstaller",,"888-878-1785","seekerinc",,"yes",,,,,,,,,,,,,,"3000 Speight",,"Waco","TX",76711
245,"MM245 Woltz & Wind Ford",,"MM245 Woltz & Wind Ford",,,,"bdoman@woltzwindford.com; rachelh@greatmailers.com; gail@greatmailers.com; jtumen@greatmailers.com","Woltz & Wind Ford","www.preapprovalonline.com/woltz","Ask for Bob Doman","888-875-5519","seekerinc",,"yes",,,,,,,,,,,,,,"2100 Washington Pike",,"Heidelberg","PA",15106
244,"MM244 DCH Brunswick Toyota Scion",,"MM244 DCH Brunswick Toyota Scion",,,,"jmessina@dchusa.com; rachelh@greatmailers.com; gail@greatmailers.com; jtumen@greatmailers.com","DCH Brunswick Toyota Scion","www.preapprovalonline.com/dch",,"888-203-3225","seekerinc",,"yes",,,,,,,,,,,,,,"1504 US Rt. 1",,"North Brunswick","NJ",8902
243,"MM243 Hubert Vester Honda",,"MM243 Hubert Vester Honda",,,,"sruffin@tmo.blackberry.net; gail@greatmailers.com; jtumen@greatmailers.com; jim@bbackpromotions.com; rachelh@greatmailers.com; cornelljim1@gmail.com","Hubert Vester Honda","www.preapprovalonline.com/hubertvester",,"888-872-7305","seekerinc",,"yes",,,,,,,,,,,,,,"3701 Raleigh Road Parkway",,"Wilson","NC",27896
242,"bb242 Santay Motors",,"bb242 Santay Motors",,,,"dj@santayauto.com; mike@santayauto.com; mark@btobino.com; jinnyd2007@yahoo.com","Santay Automotive","autoappnow.com code:SMDT002345",,"888-509-4689","seekerinc",,"yes","475 fico phone numbers 20 mile radius and 1800 income.
888-509-4689 	SANTAY AUTO 	1-301-932-8999 ",,,,,,,,,,,,,"2910 Crain Highway",,"Waldorf","MD",20601
241,"MM241 Atlantic Toyota",,"MM241 Atlantic Toyota",,,,"jtumen@greatmailers.com; rachelh@greatmailers.com; tmgmedia@gmail.com; gail@greatmailers.com; asmith@atlanticautogroup.net","Atlantic Toyota","www.preapprovalonline.com/atlantictoyota",,"888-866-5578","seekerinc",,"yes",,,,,,,,,,,,,,"200 Sunrise Hwy",,"Amityville","NY",11701
240,"MM240 Toyota of Hollywood Pre-Owned",,"MM240 Toyota of Hollywood Pre-Owned",,,,"obrown@czag.net; rachelh@greatmailers.com; gail@greatmailers.com; jtumen@greatmailers.com; tamarafry@hotmail.com; sjones@czag.net","Toyota of Hollywood Pre-Owned Department","www.preapprovalonline.com/hollywoodpreowned","$1,000 Internet Shopping Spree to the first 25 people who come in.","888-859-7957","seekerinc",,"yes",,,,,,,,,,,,,,"2200-2300 North State Road 7",,"Hollywood","FL",33021
239,"MM239 Toyota of Hollywood",,"MM239 Toyota of Hollywood",,,,"mruiz@czag.net; rachelh@greatmailers.com; gail@greatmailers.com; jtumen@greatmailers.com; tamarafry@hotmail.com","Toyota of Hollywood","www.preapprovalonline.com/hollywood","$1,000 Internet Shopping Spree to the first 25 people who come in.","888-851-8205","seekerinc",,"yes",,,,,,,,,,,,,,"1841 North State Road 7",,"Hollywood","FL",33021
238,"Suzuki of Nashville",,"Suzuki of Nashville",,,,"suzukiofnashville@comcast.net; meredith_whitaker@hotmail.com; babygurlcashville1@yahoo.com; samaras.mommy@hotmail.com","Suzuki of Nashville","www.autoappnow.com Code:000685HNTL",,"888-364-0214","marketernet",,"yes","888-364-0214",,,,,,,,,,,,,"1635 Bell Rd",,"Nashville","TN",37211
237,"MM237 Peruzzi Toyota",,"MM237 Peruzzi Toyota",,,,"gail@greatmailers.com; cgramlich@peruzzi.com; epainter@peruzzi.com; bfino@peruzzi.com; jtumen@greatmailers.com; rachelh@greatmailers.com; ","Peruzzi Toyota","www.preapprovalonline.com/peruzzi",,"888-828-7942","seekerinc",,"yes",,,,,,,,,,,,,,"2601 Bethlehem Pike",,"Hatfield","PA",19440
236,"MM236 Schwartz Mazda Chrysler",,"MM236 Schwartz Mazda Chrysler",,,,"gail@greatmailers.com; rachelh@hotmail.com; raphael@schwartzchryslermazda.com; jims@buy-auto.com; jtumen@greatmailers.com","Schwartz Mazda Chrysler","www.preapprovalonline.com/schwartz","$1,000 Internet Shopping Spree for the first 25 customers that come in.","888-805-2440","seekerinc",,"yes",,,,,,,,,,,,,,"585 Shrewsbury Avenue",,"Shrewsbury","NJ",7702
235,"MM235 Auto Express Credit",,"MM235 Auto Express Credit",,,,"gail@greatmailers.com; rachelh@greatmailers.com; jtumen@greatmailers.com; tamarafry@hotmail.com; rodrigo@autoecredit.com","Auto Express Credit","www.preapprovalonline.com/autoexpress","$1000 Internet Shopping Spree For The First 25 People That Come In.","888-782-0051","seekerinc",,"yes",,,,,,,,,,,,,,"2403 North State Road 7",,"Margate","FL",33063
234,"MM234 Esserman International",,"MM234 Esserman International",,,,"gail@greatmailers.com; jtumen@greatmailers.com; rachelh@greatmailers.com; csaavedra@esserman.com","Esserman International","www.preapprovalonline.com/esserman","$1,000 Internet Shopping Spree for the first 25 customers that come in.","888-724-4216","seekerinc",,"yes",,,,,,,,,,,,,,"10455 NW 12th St.",,"Miami","FL",33172
233,"MM233 Planet Auto Sales",,"MM233 Planet Auto Sales",,,,"gail@greatmailers.com; planetmotors225@gmail.com; rachelh@greatmailers.com; jtumen@greatmailers.com; tamarafry@hotmail.com","Planet Auto Sales","www.preapprovalonline.com/planet","$1,000 Internet Shopping Spree to the first 25 people who come in.","888-273-1571","seekerinc",,"yes",,,,,,,,,,,,,,"225 North Military Trail",,"West Palm Beach","FL",33415
232,"MM232 Allstar Motors",,"MM232 Allstar Motors",,,,"gail@greatmailers.com; jtumen@greatmailers.com; bmccoygm5@bellsouth.net; rachelh@greatmailers.com; tamarafry@hotmail.com","Allstar Motors","www.preapprovalonline.com/allstar","$1,000 Internet Shopping Spree for the first 25 customers that come in.","888-292-7985","seekerinc",,"yes",,,,,,,,,,,,,,"801 South State Road 7",,"Plantation","FL",33317
231,"MM231 Unika Motors",,"MM231 Unika Motors",,,,"gail@greatmailers.com; rachelh@greatmailers.com; andrearmani82@gmail.com; jtumen@greatmailers.com; tamarafry@hotmail.com","Unika Motors","www.preapprovalonline.com/unika","$1,000 Internet Shopping Spree to the first 25 people who come in.","888-283-6814","seekerinc",,"yes",,,,,,,,,,,,,,"3101 NW 36th Street",,"Miami","FL",33142
230,"MM230 L.P.T.N.",,"MM230 L.P.T.N.",,,,"gail@greatmailers.com; jtumen@greatmailers.com; rachelh@greatmailers.com; bmccoygm5@bellsouth.net; tamarafry@hotmail.com","L.P.T.N.","www.preapprovalonline.com/lptn","Ask for Jim Hines","888-342-0622","seekerinc",,"yes",,,,,,,,,,,,,,"501 South State Road 7",,"Plantation","FL",33317
229,"MM229 Carfagno Chevrolet",,"MM229 Carfagno Chevrolet",,,,"gail@greatmailers.com; bobbylonardo@tampabay.rr.com; jtumen@greatmailers.com; rachelh@greatmailers.com; tvancarloan@hotmail.com","Carfagno Chevrolet","www.preapprovalonline.com/carfagno","Ask for Tom VanKempen","888-267-0247","seekerinc",,"yes",,,,,,,,,,,,,,"1230 E. Ridge Pike",,"Plymouth Meeting","PA",19462
228,"MM228 courtesy dodge",,"MM228 courtesy dodge",,,,"mark@btobino.com; jpeterson@courtesy.com;jpeterson@courtesy.com; jaimecpeterson@hotmail.com; btobino200@gmail.com","Courtesy Chrysler Jeep Dodge ","www.autoappnow.com Authorization Code: 000544CD","Ask For Jaime Peterson ","616-241-9525","marketernet",228,"no",,,,,,,,,,,,,,"440 28th St SE",,"Grand Rapids","MI",49548
227,"MM227 Car Plaza of Davie",,"MM227 Car Plaza of Davie",,,,"gail@greatmailers.com; rachelh@greatmailers.com; jtumen@greatmailers.com; dalet@carplaza.com; tamarafry@hotmail.com","Car Plaza of Davie","www.preapprovalonline.com/carplaza","$1,000 Internet Shopping Spree To The First 50 People To Bring This Letter In.","888-215-3787","seekerinc",,"yes",,,,,,,,,,,,,,"2838 North State Road 7",,"Hollywood","FL",33021
226,"MM226 The Car Shack",,"MM226 The Car Shack",,,,"gail@greatmailers.com; rachelh@greatmailers.com; jtumen@greatmailers.com; thecarshack@bellsouth.net; tamarafry@hotmail.com","The Car Shack","www.preapprovalonline.com/carshack","$1000 Internet Shopping Spree For The First 25 People That Come In.","888-263-8587","seekerinc",,"yes",,,,,,,,,,,,,,"930 E. 49th Street",,"Hialeah","FL",33013
225,"MM225 Brown Daub Chevrolet Volvo",,"MM225 Brown Daub Chevrolet Volvo",,,,"gail@greatmailers.com; jtumen@greatmailers.com; bpallo@browndaub.com; ssteltzman@browndaub.com; deery6@aol.com; rachelh@greatmailers.com","Brown Daub Chevrolet Volvo","www.preapprovalonline.com/browndaub","Ask for Bill Pallo or Scott Steltzman","888-217-5941","seekerinc",,"yes",,,,,,,,,,,,,,"819 Nazareth Pike",,"Nazareth","PA",18064
224,"MM224 Chevy 21",,"MM224 Chevy 21",,,,"gail@greatmailers.com; jtumenl@aol.com; jtumen@greatmailers.com; mtarn@chevy21.com; rachelh@greatmailers.com; bobbylonardo@tampabay.rr.com","CHEVY 21","www.preapprovalonline.com/chevy21","WHEN YOU CALL ASK FOR MIKE TARN","888-217-3930","seekerinc",,"yes",,,,,,,,,,,,,,"1100-1124 Hellertown Rd",,"Bethlehem","PA",18015
223,"MM223 Pompano Suzuki",,"MM223 Pompano Suzuki",,,,"gail@greatmailers.com; rachelh@greatmailers.com;  jtumen@greatmailers.com; tamarafry@hotmail.com; gonzalezmaikel@yahoo.com","Pompano Suzuki","www.preapprovalonline.com/pompsuzuki","$1,000 Internet Shopping Spree To The First 25 People To Bring This Letter In.","888-203-9604","seekerinc",,"yes",,,,,,,,,,,,,,"1150 South Federal Highway",,"Pompano Beach","FL",33062
222,"MM222 Cross Lander",,"MM222 Cross Lander",,,,"gail@greatmailers.com; jtumenl@aol.com; jtumen@greatmailers.com; jan@greatmailers.com; cardoza27@yahoo.com","Cross Lander","www.preapprovalonline.com/crosslander","$1,000 Internet Shopping Spree To The First 50 People To Bring This Letter In.","877-486-4455","seekerinc",,"yes",,,,,,,,,,,,,,"2375 NW 36th St.",,"Miami","FL",33142
219,"ASE219 casey frontier chevrolet",,"ASE219 casey frontier chevrolet",,,,"ase.bbailey@yahoo.com; ewatson@btobino.com",,,,,"seekerinc",,"no",,,,,,,,,,,,,,,,,,
218,"ASE218 GILLAND AUTOPLEX",,"ASE218 GILLAND AUTOPLEX",,,,"ase.bbailey@yahoo.com; ewatson@btobino.com",,,,,"seekerinc",,"no",,,,,,,,,,,,,,,,,,
217,"ASE217 AMERICARS",,"ASE217 AMERICARS",,,,"ase.bbailey@yahoo.com; ewatson@btobino.com",,,,,"seekerinc",,"no",,,,,,,,,,,,,,,,,,
216,"ASE216 CARS AND CREDIT",,"ASE216 CARS AND CREDIT",,,,"ase.bbailey@yahoo.com; ewatson@btobino.com",,,,,"seekerinc",,"no",,,,,,,,,,,,,,,,,,
215,"MM215 Rimrock Subaru & Certified Used",,"MM215 Rimrock Subaru & Certified Used",,,,"gail@greatmailers.com;edwardchin310@msn.com;bobbylonardo@tampabay.rr.com; rachelh@greatmailers.com; jtumen@greatmailers.com; jtumenl@aol.com","Rimrock Subaru & Certified Used","www.preapprovalonline.com/rimrock",,"888-764-0396","seekerinc",,"yes",,,,,,,,,,,,,,"324 South 24th Street",,"West Billings","MT",59102
214,"BB214 Oxmoor Toyota",,"BB214 Oxmoor Toyota",,,,"ewatson@btobino.com","Oxmoor Toyota","www.autoappnow.com Code: 003108LTTG","Ask For Justin Richey","888-751-5971","marketernet",,"yes","tharper@oxmoortoyota.com
.888-751-5971",,,,,,,,,,,,,"8003 SHELBYVILLE RD ",,"Louisville","KY",40222
213,"BB213 Van Hyundai",,"BB213 Van Hyundai",,,,"rbillups@vtaig.com; vanhyundai@btobino.com; mark@btobino.com","Van Hyundai","www.autoappnow.com","001108VHTL","888-701-8236","seekerinc",,"yes","888-701-8236",,,,,,,,,,,,,"1301 S I35 E",,"Carroliton","TX",75006
212,"MM212 Atlantic Hyundai",,"MM212 Atlantic Hyundai",,,,"jan@greatmailers.com; gail@greatmailers.com; jtumen@greatmailers.com; atlantichyundai@leads.gs.reyrey.com; tmgmedia@gmail.com; atlantich@btobino.com","Atlantic Hyundai","www.preapprovalonline.com/ahyundai","WHEN YOU CALL ASK FOR PERCY","888-896-9729","seekerinc",212,"yes","888-896-9729",,,,,,,,,,,,,"193 Sunrise Highway",,"West Islip","NY",11795
211,"bb211Nelson Mazda ",,"bb211Nelson Mazda ",,,,"ewatson@btobino.com; rcraycroft@nelsonmazda.com","Nelson Mazda of Hickory Hollow","www.AUTOAPPNOW.COM CODE: 000118NMTL","Ask for Rich Craycroft","888-613-5987","seekerinc",211,"yes","888-601-6262
Nelson Mazda
5300 Mt. View Rd. 
Antioch, TN 37013 
rcraycroft@nelsonmazda.com",,,,,,,,,,,,,"5300 Mt. View Rd.",,"Antioch","TN",37013
210,"MM210 World On Wheels",,"MM210 World On Wheels",,,," jan@greatmailers.com; gail@greatmailers.com; jtumen@greatmailers.com; jcallavaapp@aol.com; wheels@btobino.com
 ","World On Wheels","www.preapprovalonline.com/worldonwheels","$1,000 Internet Shopping Spree To The First 50 People To Bring This Letter In.","888-894-0425","seekerinc",,"yes","zip code  33172, radius 7 miles, credit scores 580-649, no filters",,,,,,,,,,,,,"2315 NW 97th Avenue",,"Miami","FL",33172
209,"MM209 Legacy Infinit",,"MM209 Legacy Infinit",,,," jan@greatmailers.com; jtumen@greatmailers.com; peter@conceptxadv.com; Slanzilotta@legacymotorholdings.com; legacy@btobino.com","Legacy Infinit","www.preapprovalonline.com/legacy",,"888-401-4766","seekerinc",,"yes",,,,,,,,,,,,,,"855 Sunrise Hwy",,"Lynbrook","NY",11563
208,"MM208 1527 Atlantic Kia",,"MM208 1527 Atlantic Kia",,,,"jtumen@greatmailers.com; jan@greatmailers.com; peter@conceptxadv.com; jpap72@gmail.com; atlantickia@gmail.com; gail@greatmailers.com","Atlantic Kia ","www.preapprovalonline.com/atlantickia",,"888-871-9074","seekerinc",,"yes","Job 1527 Atlantic Kia, Total Ordered 500/Max Amt per day 25.  Start Oct 7.",,,,,,,,,,,,,"305 East Sunrise Highway",,"Lindenhurst","NY",11757
207,"BB207 Nissan of rivergate T/U",,"BB207 Nissan of rivergate T/U",,,,"dave.flinn@nissonafrivergate.com; cwright@nor.dealercrmcom; cwright3540@yahoo.com; mark@btobino.com; hays@btobino.com","Nissan of Rivergate","000522TUTL","Ask for the local Crediplex representative Sam Green","888-525-5684","marketernet",,"yes",,,,,,,,,,,,,,"1550 N. Gallatin Pike ",,"Madison","TN",37115
206,"MM206 Cramer Toyota of Venice",,"MM206 Cramer Toyota of Venice",,,,"guspros@aol.com; gmcramertoyota@setdlr.com; rachelh@greatmailers.com; cramer@quickdatarobot.com; rgbond@ix.netcom.com; carlshakarian@hotmail.com; gail@greatmailers.com","Cramer Toyota of Venice","www.preapprovalonline.com/cramer","Ask to speak with Lance O'Fallon or Jodey Bruner","888-871-9063","seekerinc",,"yes",,,,,,,,,,,,,,"900 U.S. 41 By-Pass South",,"Venice","FL",34285
205,"mm205 Connection Motors",,"mm205 Connection Motors",,,,"rachelh@greatmailers.com; mark@btobino.com; tmelero13@bellsouth.net; jtumen@greatmailers.com; zamora33129@hotmail.com; gail@greatmailers.com","Connection Motors","www.preapprovalonline.com/connection","$1,000 Internet Shopping Spree To The First 50 People To Bring This Letter In.","888-837-5706","seekerinc",,"yes",,,,,,,,,,,,,,"2900 NW 27th Avenue",,"Miami","FL",33142
204,"MM6451 Bob Bells Ford",,"MM6451 Bob Bells Ford",,,,"jan@greatmailers.com; jtumen@greatmailers.com; speck@bobbell.com; mark@btobino.com; bobbyl@paragonevent.com; bobbell@btobino.com; gail@greatmailers.com","Bob Bell Ford","www.preapprovalonline.com/bobbell",,"888-273-2493","seekerinc",,"yes",,,,,,,,,,,,,,"7125 Ritchie Hwy",,"Glen Burnie","MD",21060
203,"BB200 Texas Toyota of Grapevine",,"BB200 Texas Toyota of Grapevine",,,,"sharaburda@vtaig.com; mark@btobino.com; fydavis2@yahoo.com; jguhn@vtaig.com","Texas Toyota of Grapevine","043245DTTT",,"817-259-1468","seekerinc",,"no","043245DTTT
817-259-1468",,,,,,,,,,,,,"801 State Hwy. 114 East",,"Grapevine","TX",76051
202,"ASE200 Family Auto",,"ASE200 Family Auto",,,,"jbultema23@msn.com; ewatson@btobino.com; c.reynolds@familyac.com; afsales@familyac.com","family auto ","043215WFDT",,,"marketernet",,"no","043215WFDT
wade ford list
dmangrum@wade.com; mark@btobino.com; jbultema23@msn.com; ERIER38@HOTMAIL.COM",,,,,,,,,,,,,"3860 S. Cobb Dr. S.E.",,"Smyrna","Ga",30081
201,"MM195 #2 Lehmers Concord Buick","finance@lehmers.com","MM195 #2 Lehmers Concord Buick",,,,"bobbyl@paragonevent.com; jtumen@greatmailers.com; mark@btobino.com; lehmers@btobino.com; ssong@buygmdirect.com ","Lehmers Concord Buick ","WWW.PREAPPROVALONLINE.COM//LEHMERS","When You Call Ask For Cindy Kanellis","888-215-3787","seekerinc",,"yes","09 08 08 418 left no more than 20 a day.",,,,,,,,,,,,,"1905 Market Street",,"Concord","CA",94520
200,"MM194 #1 NEXCAR","jan@greatmailers.com","MM194 #1 NEXCAR",,,,"erkingwood@yahoo.com; scanyman@aol.com; carlsharkarian@hotmail.com; jtumen@greatmailers.com; jan@greatmailers.com; mark@btobino.com: nexcar@btobino.com","NEXCAR","WWW.PREAPPROVALONLINE.COM/NEXCAR","RECEIVE A FREE $25 PRE-PAID GAS CARD FOR TAKING A TEXT DRIVE","888-795-7521","seekerinc",,"yes","561 left as of 9 8 09 max 30 a day
scanyman@aol.com; carlsharkarian@hotmail.com",,,,,,,,,,,,,"8655 Hwy 6 South ",,"Houston","TX",77083
199,"BB199 Battlefield Automotive",,"BB199 Battlefield Automotive",,,," bbailey@automotivesaleselite.com; ase.bbailey@yahoo.com; ase2@btobino.com","Battlefield Automotive","01234DTBA",,,"seekerinc",,"no",,,,,,,,,,,,,,,,,,
198,"BB198 Vandergriff Acura Prime",,"BB198 Vandergriff Acura Prime",,,,"fydavis2@yahoo.com; jsirkin@vtaig.com; cpruneda@vtaig.com; mwbraaten@yahoo.com; bb197va@btobino.com","Vandergriff Acura","P68PR64VA",,"888-751-5971","seekerinc",,"yes","568PR64VA",,,,,,,,,,,,,"1100 West I-20 ",,"Arlington","TX",76017
197,"BB197 Vandergriff Acura","sydavis2@yahoo.com","BB197 Vandergriff Acura",,,,"fydavis2@yahoo.com; jsirkin@vtaig.com; cpruneda@vtaig.com; mwbraaten@yahoo.com; bb1977va@btobino.com","Vadergriff Acura","0124DTVA",,"888-751-5971","seekerinc",,"yes","8663748702 their 800 number. ",,,,,,,,,,,,,"1100 West I-20 ",,"Arlington","TX",76017
196,"BB196 Ray Skillman",,"BB196 Ray Skillman",,,,"jbultema23@msn.com; ewatson@btobino.com; bmro@sbcglobal.net","RAY SKILLMAN SHADELAND KIA","www.autoappnow.com ","Authorization Code 001017RSKT","866-286-9884","seekerinc",,"no","866-286-9884
RAY SKILLMAN SHADELAND KIA",,,,,,,,,,,,,"1300 North Shadeland Ave.",,"Indianapolis","IN",46219
195,"BB195 Lone Star Chrysler Jeep Dodge",,"BB195 Lone Star Chrysler Jeep Dodge",,,,"rjones@lonestarcjd.com; mwbraaten@yahoo.com; qiqi_28@yahoo.com; sspiker@lonestarcjd.com; bb195ls@btobino.com","Lone Star Chrysler Jeep Dodge","01234DTLS","Home of the $250 referral","888-607-9367","seekerinc",,"yes","01234DTLS

888-607-9367
",,,,,,,,,,,,,"7100 Marvin D Love Freeway",,"Dallas","TX",75237
194,"BB194 Jim McKay Chevrolet Inc","first.united.financial@gmail.com","BB194 Jim McKay Chevrolet Inc",,,,"first.united.financial@gmail.com; jinnyd7@yahoo.com; ","Jim McKay Chevrolet Inc.","01234DTJM","Ask for Ray Blackburn","888-740-7519","seekerinc",,"yes","1-888-740-7519  01234DTJM",,,,,,,,,,,,,"10460 Lee Highway ",,"Fairfax","VA",22030
193,"mm193 BILL BRANCH CHEVROLET","BILLYJOHNSON@BRANCHCHEVY.COM","mm193 BILL BRANCH CHEVROLET",,,,"jan@greatmailers.com; jtumen@greatmailers.com; keithwalker@branchchevy.com; billyjohnson@branchchevy.com; guspros@aol.com; carlshakarian@hotmail.com; billbranch@btobino.com","BILL BRANCH CHEVROLET","WWW.PREAPPROVALONLINE.COM/BRANCH",,"888-892-4237","seekerinc",,"yes","JOB 1487 500/25 PER DAY",,,,,,,,,,,,,"3980 FOWLER STREET",,"FORT MYERS","FL",33901
192,"mm192 Team Certified Suzuki SP","TEAMCERTIFIEDAUTO@YAHOO.COM","mm192 Team Certified Suzuki SP",,,,"jan@greatmailers.com; jtumen@greatmailers.com; carlshakarian@hotmail.com; teamcertifiedauto@yahoo.com; teamcert@btobino.com","Team Certified Suzuki","www.preapprovalonline.com/teamsuzuki","RECEIVE A FREE $20 PRE-PAID GAS CARD FOR TAKING A TEST DRIVE","888-342-0622","seekerinc",,"yes","JOB 6433  MAX AMT 600/30 PER DAY",,,,,,,,,,,,,"21333 Katy Freeway",,"Katy","Texas",77450
191,"mm191 Kendall Toyota SP","charlis@kendalltoyota.com","mm191 Kendall Toyota SP",,,,"charlis@kendalltoyota.com; jtumen@greatmailers.com; jan@greatmailers.com; kendaltoy@btobino.com; gail@greatmailers.com; cindyr@kendalltoyota.com","Kendall Toyota","www.preapprovalonline.com/kendalltoyota","ASK FOR CINDY ROSADO","888-273-1571","seekerinc",,"yes",,,,,,,,,,,,,,"10943 South Dixie Highway",,"Miami","FL",33156
190,"mm190 Hyundai 112","jan@greatmailers.com","mm190 Hyundai 112",,,,"peter@conceptxadv.com; jtumen@greatmailers.com; vincentjferrara@aol.com; jan@greatmailers.com; hyundai112@btobino.com","Hyundai 112","Hyundai 112","WHEN YOU CALL ASK FOR VINCENT J. FERRARA GENERAL MANAGER","888-292-7985","seekerinc",,"yes","jOB # 1484 mAX 500/25 PER DAY",,,,,,,,,,,,,"2096 Route 112",,"Medford","NY",11763
189,"BB189 Courtesy Chevrolet",,"BB189 Courtesy Chevrolet",,,,"chubler@courtesysandiego.com; danw@btobino.com; aharris@courtesysandiego.com; courtesy@btobino.com; steven@swifttechservices.com","Courtesy Chevrolet Center","EQ0728CCCT","www.autoappnow.com","888-701-8236","seekerinc",,"yes",,,,,,,,,,,,,,"750 Camino Del Rio North",,"San Deigo","CA",92108
188,"ase188  JD byrider",,"ase188  JD byrider",,,,"bbailey@automotivesaleselite.com; kray@jdbyrider.com; ase.bbailey@yahoo.com; ase2@btobino.com",,,,,"seekerinc",,"no","max number per day   50

450-549 scores

i want phone numbers

46545   30 mi radius

",,,,,,,,,,,,,,,,,
187,"mm187 Royal Palm Toyota & Scion","jharrison@penskeautomotive.com","mm187 Royal Palm Toyota & Scion",,,,"royalpalm@btobino.com; jtumen@greatmailers.com; jan@greatmailers.com; jharrison@penskeautomotive.com; carlshakarian@hotmail.com; gail@greatmailers.com","Royal PalmToyota & Scion","www.preapprovalonline.com/royal","When You Call Ask For John Harrison General Sales Manager","888-818-4712","seekerinc",,"yes","Job 6430",,,,,,,,,,,,,"9205 Southern Boulevard",,"Royal Palm Beach","FL",33411
186,"mm186 Stevens Creek Hyundai","rustynlynnb@comcast.net","mm186 Stevens Creek Hyundai",,,,"stevenscreek@btobino.com; rustynlynnb@comcast.net; jtumen@greatmailers.com; bobbylonardo@paragonevent.com; jan@greatmailers.coms; kameelsch@gmail.com ","Stevens Creek Hyundai","www.preapprovalonline.com/stevens","When You Call Please Ask For Rusty","888-223-8364","seekerinc",,"yes","Job 6425",,,,,,,,,,,,,"3566 Stevens Creek Blvd.",,"San Jose","CA",95117
185,"mm185 Dimmitt Chevrolet","Sales@DimmittChev.com","mm185 Dimmitt Chevrolet",,,,"dimmitt@btobino.com; jan@greatmailers.com; guspros@aol.com; jtumen@greatmailers.com; sales@dimmittchev.com; bobbyl@paragonevent.com; carlshakarian@hotmail.com","Dimmitt Chevrolet","www.preapprovalonline.com/dimmitt","Receive a free $20 gas card for taking a test drive.","888-799-2845","seekerinc",,"yes","000012DTDC      600/Max 30 per day",,,,,,,,,,,,,"25485 US Highway 19 N City",,"Clearwater","Fl",33763
184,"mm184 Superior Motors","george@superiormotors.com","mm184 Superior Motors",,,,"superiormotors@btobino.com; jan@greatmailers.com; jtumen@greatmailers.com; george@superiormotors.com; bobbyl@paragonevent.com;","Superior Motors","www.preapprovalonline.com/superior","When You Call Please Ask For Vincent George Moore ","888-872-7305","seekerinc",,"yes",6424,,,,,,,,,,,,,"835 Fivechop Rd., Second Floor",,"Orangeburg","SC",29115
183,"mm183 Jenkins Hyundai","joes@jenkinscars.com","mm183 Jenkins Hyundai",,,,"jan@greatmailers.com; jtumen@greatmailers.com; joes@jenkinscars.com; bobbyl@paragonevent.com","Jenkins Hyundai","www.preapprovalonline.com/jenkinshyundai","When You Call Ask For Joey","888-203-9604","seekerinc",,"yes",6411,,,,,,,,,,,,,"1602 SW College Road",,"Ocala ","FL",34471
182,"mm182 Frankel Cadillac Pontiac","rspeert@frankelcadillac.com","mm182 Frankel Cadillac Pontiac",,,,"frankel@btobino.com; jan@greatmailers.com; jtumen@greatmailers.com; rspeert@frankelcadillac.com; bobbyl@paragonevent.com","Frankel Cadillac Pontiac","www.preapprovalonline.com/frankel",,"888-217-5941","seekerinc",,"yes",6418,,,,,,,,,,,,,"11227 Reisterstown Road",,"Ownings  Mills","MD",21117
181,"mm181 Kasper Buick  Pontiac GMC","maichholz@kasperautogroup.com","mm181 Kasper Buick  Pontiac GMC",,,,"kasper1@btobino.com; jan@greatmailers.com; jtumen@greatmailers.com; maichholz@kasperautogroup.com; bobbyl@paragonevent.com ","Kasper Buick  Pontiac GMC","www.preapproval.com\kasper","When You Call Please Ask For Matt Aicholz","888-875-5519","seekerinc",,"yes",6420,,,,,,,,,,,,,"2401 Cleveland Road",,"Sandusky","OH",44870
180,"bb180 auto advantage",,"bb180 auto advantage",,,,"lkellermlm@aol.com; ewatson@btobino.com; sonya@btobino.com","Auto advantage of hendersonville",,,,"seekerinc",,"no",,,,,,,,,,,,,,,,,,
179,"BB179 Hopkins Of Blounts Town",,"BB179 Hopkins Of Blounts Town",,,,"lobryan@hopkinsgmc.com; mark@btobino.com; dbrauer@hopkinsgmc.com","Hopkins of Blounts Town","000229HBTR",,"888-509-4689","seekerinc",,"yes",,,,,,,,,,,,,,"20331 West Central Ave",,"Blounts Town","Fl",32424
178,"BB189 Courtesy Chevrolet",,"BB189 Courtesy Chevrolet",,,,"chubler@courtesysandiego.com; danw@btobino.com; aharris@courtesysandiego.com; courtesy@btobino.com; steven@swifttechservices.com; brandy@bdcnation.com","Courtesy Chevrolet Center","000728CCCT",,"888-701-8236","marketernet",,"yes","removed 8887101901 anderson
888-701-8236 COURTESY CHEVROLET SAN DIEGO 1-877-297-4321 ",,,,,,,,,,,,,"750 Camino Del Rio North",,"San Deigo","CA",92108
177,"BB177 Ron Tonkin",,"BB177 Ron Tonkin",,,,"arice@tonkin.com; sonya@btobino.com","Ron Tonkin","000228TDRT",,"888-279-4439","seekerinc",,"yes",,,,,,,,,,,,,,"19203 SE Mcloughlin Blvd.",,"Gladstone","OR",97027
176,"Vaughan Data",,"Vaughan Data",,,,"yougotmike@gmail.com; ewatson@btobino.com",,,,,"marketernet",,"no",,,,,,,,,,,,,,,,,,
175,"BB175 All Star Chevrolet",,"BB175 All Star Chevrolet",,,,"ewatson@btobino.com; bdpotts@comcast.net","Call for the Authorized Dealer in your Area","000447ASPA",,"877-482-4325","seekerinc",,"yes","877-48-CHECK ALL STAR CHEVY 1-662-890-7525 7240 CRAFT GOODMAN RD 1009 HWY 82 EAST 
OLIVE BRANCH, MS 38654 
",,,,,,,,,,,,,"7240 CRAFT GOODMAN RD 1009 HWY 82 EAST ",,"OLIVE BRANCH","MS",38654
174,"Hopkins Of Blounts Town","lobrian@hopkinsgmc.com","Hopkins Of Blounts Town",,,,"lobryan@hopkinsgmc.com; mark@btobino.com; dbrauer@hopkinsgmc.com","Hopkins of Blounts Town","000229HBTR",,"888-509-4689"," marketernet",,"yes","000229hbtr, hopkins01 hopkins 01
1-888-509-4689 HOPKINS OF BLUNTSTOWN 1-850-633-4337  ",,,,,,,,,,,,,"20331 West Central Ave",,"Blounts Town","Fl",32424
173,"Ron Tonkin ",,"Ron Tonkin ",,,,"arice@tonkin.com; sonya@btobino.com","Ron Tonkin","000228TDRT",,"888-279-4439","marketernet",,"yes","8882794439  000228tdrt
rtonkin01/rtonkin01",,,,,,,,,,,,,"19203 SE Mcloughlin Blvd.",,"Gladstone","OR",97207
172,"Waldorf",,"Waldorf",,,,"helpuride@yahoo.com; ewatson@btobino.com; jinnyd@btobino.com; buycarnow@gmail.com","Waldorf Ford & Dodge","000228TRWF",,"888-525-9580","marketernet",,"yes",,,,,,,,,,,,,,"2440 Crain Highway ",,"Waldorf","MD",20601
171,"Park Plaza Dodge",,"Park Plaza Dodge",,,,"suzileer@yahoo.com; elise@btobino.com; ewatson@btobino.com; plazadodge@btobino.com","Park Plaza Dodge","000718PPD",,"888-601-6262","marketernet",,"yes","888-601-6262 PARK PLAZA DODGE 1-866-906-1297 callsource.com bdcnation7/parkplazadodge",,,,,,,,,,,,,"7911 West  Rosevelt Rd",,"Forest Park","IL",60130
170,"Wholesale",,"Wholesale",,,,"utgirl177@yahoo.com; burnieb1@yahoo.com; bdpotts@comcast.net; theunclephil@hotmail",,,,,"marketernet",,"no","$1 each",,,,,,,,,,,,,,,,,
169,"169 Bankston Nissan",,"169 Bankston Nissan",,,,"trambyp@autonation.com; scottc@autonation.com; mwbraaten@yahoo.com","The Authorized Dealer in Your Area","774422BNTR",,"888-509-4685","seekerinc",,"yes",,,,,,,,,,,,,,"1500 E Airport Frwy.",,"Irving","TX",75062
168,"tan1168 Prestige Suzuki",,"tan1168 Prestige Suzuki",,,,"ewatson@btobino.com; bdpotts@comcast.net","Call for the Authorized Dealer in your Area","PA5557PS22",,"888-521-0170","seekerinc",,"yes","888-809-0195
new 888-521-0170 PRESTIGE 1-828-298-9600 ",,,,,,,,,,,,,"585 Tunnel Road",,"Asheville","NC",28805
167,"M167 Glenn MITSUBISHI",,"M167 Glenn MITSUBISHI",,,,"tbarron@mmsa.com; bdpotts@comcast.net; ben.isaac@glennautomall.com; jack.williams@glennautomall.com; glenn@btobino.com;  john.stumbo@glennautomall.com; john_stumbo@hotmail.com ","The Authorized Dealer in Your Area","000512GLMT",,"888-279-4439","seekerinc",,"yes","1-888-279-4439 GLENN MITSUBISHI 1-859-595-3754   ",,,,,,,,,,,,,"3380 Richmond Road",,"Lexington","KY",40509
166,"BB166 Nashville Dodge",,"BB166 Nashville Dodge",,,,"mark@btobino.com; ewatson@btobino.com; willhockett@yahoo.com; ewatson@btobino.com","Nashville Chrysler Jeep Dodge","000442NDTL",,"888-525-5684","seekerinc",,"yes","888-525-5684
10033398-133398-08",,,,,,,,,,,,,"5800 Crossings Blvd",,"Antioch","TN",37013
165,"Jeffs Motorcars",,"Jeffs Motorcars",,,,"ewatson@btobino.com; c_cuschieri@yahoo.ca; chuckc@btobino.com",,,,,"marketernet",,"no",,,,,,,,,,,,,,,,,,
164,"164 Franklin Pontiac Buick GMC",,"164 Franklin Pontiac Buick GMC",,,,"bpotts@btobino.com; pcockerham@mindspring.com; sbyrd@franklinpbg.com; mweaver@franklinpbg.com","Franklin Pontiac Buick GMC","000799FBGT",,"888-509-4689","seekerinc",,"yes","888-509-4689 FRANKLIN PONTIAC BUICK GMC 1-502-525-1701 ",,,,,,,,,,,,,"1413 Murfreesboro Road",,"Franklin","TN",37067
163,"Ed Moses Dodge Inc.",,"Ed Moses Dodge Inc.",,,,"ewatson@btobino.com; c_cuschieri@yahoo.ca; chuckc@btobino.com",,,,,"marketernet",,"no",,,,,,,,,,,,,,,,,,
162,"Bill Estes Ford",,"Bill Estes Ford",,,,"ewatson@btobino.com; c_cuschieri@yahoo.ca; chuckc@btobino.com",,,,,"marketernet",,"no",,,,,,,,,,,,,,,,,,
161,"161 Nissan of Rivergate",,"161 Nissan of Rivergate",,,,"dave.flinn@nissanofrivergate.com; cwright@nor.dealercrmcom; cwright3540@yahoo.com; mark@btobino.com; hays@btobino.com","Nissan of Rivergate","www.autoappnow.com ","Authorization Code 000522UCTG","888-525-5684","seekerinc",,"yes","1-888-525-5684 	NISSAN OF RIVERGATE 	1-615-865-7220",,,,,,,,,,,,,"1550 N. Gallatin Pike ",,"Madison","TN",37115
160,"Carl Black Chevy Nashville",,"Carl Black Chevy Nashville",,,,"hferguson@carlblack.com; cart138@comcast.net; ssherman@carlblack.com; ewatson@btobino.com","Carl Black Chevrolet","TRGG77CBNT",,"888-801-7672","marketernet",,"no","888-801-7672",,,,,,,,,,,,,"600 Murfreesboro Rd",,"Nashville","TN",37210
159,"Landmark Ford",,"Landmark Ford",,,,"ewatson@btobino.com; c_cuschieri@yahoo.ca; chuckc@btobino.com",,,,,"marketernet",,"no",,,,,,,,,,,,,,,,,,
157,"Bankston Nissan",,"Bankston Nissan",,,,"trambyp@autonation.com; scottc@autonation.com; mwbraaten@yahoo.com","Bankston Nissan Irving","004422BNTR",,"888-509-4685","marketernet",,"yes","888-509-4685 BANKSTON NISSAN 1-972-554-2242 
888-509-4685",,,,,,,,,,,,,"1500 E Airport Frwy.",,"Irving","TX",75062
156,"Landmark Chevy",,"Landmark Chevy",,,,"ewatson@btobino.com; c_cuschieri@yahoo.ca; chuckc@btobino.com",,,,,"marketernet",,"no",,,,,,,,,,,,,,,,,,
155,"Cleo Bay Suzuki",,"Cleo Bay Suzuki",,,,"mike@btobino.com; jeffh@cleobay.com; cleobay@btobino.com","Cleo Bay ","000822CBST",,"888-364-0214","marketernet",,"yes","888-364-0214 CLEO BAY SUZUKI 1-512-456-2255  ",,,,,,,,,,,,,"3620 E Shite Stone Blvd.",,"Ceder Park","TX",78613
154,"Browning Chevy",,"Browning Chevy",,,,"browningautomotive1@hotmail.com; ewatson@btobino.com; browning@btobino.com","Browning Chevrolet, Buick, Pontiac GMC","000924BCBP",270806054,"888-525-5684","marketernet",,"no","-888-525-5684 	BROWNING CHEVY 	1-270-875-8280 ",,,,,,,,,,,,,"52 North Franklin",,"Madisonville","KY",42431
153,"Indian Mound Pontiac Mazda",,"Indian Mound Pontiac Mazda",,,,"sstaubaap@aol.com; doug@btobino.com","Indian Mound Pontiac Mazda","00855IMTL","ND001947","888-509-4685","marketernet",,"yes",,,,,,,,,,,,,,"70 Central Parkway ",,"Heath","Ohio",43056
151,"Superior home Eq TN",,"Superior home Eq TN",,,,"gene@mymtg.net; ewatson@btobino.com",,,,,"marketernet",,"no",,,,,,,,,,,,,,,,,,
150,"Jim Reed Chevrolet",,"Jim Reed Chevrolet",,,,"jimreed@btobino.com","Jim Reed Chevrolet","000822JRTG",,"615-972-0358","marketernet",,"no",,,,,,,,,,,,,,"1512 Broadway",,"Nashville","TN",37203
149,"Terry Lee Chevy",,"Terry Lee Chevy",,,,"mingram@6834tlc.com; russ@btobino.com","Terry Lee Chevy","000822TLTG",,"513-683-4852","marketernet",,"yes",,,,,,,,,,,,,,"9673 Kings Automall Rd.",,"Cincinnati","OH",45249
148,"Crown Auto",,"Crown Auto",,,,"cniehaus@crowncars.com; doug@btobino.com; ewatson@btobino.com","Crown Auto","000812CATG",,"888-509-4689","marketernet",,"yes","888-509-4689
cniehaus@crowncars.com
crownauto/crownauto",,,,,,,,,,,,,"6400 Perimeter Loop  Rd.",,"Dublin","Ohio",43017
147,"lucas ford pa",,"lucas ford pa",,,,"ewatson@mailadvanta.com","Lucas Ford Superstore","000217LFBB",,"888-525-9580","marketernet",,"yes","888-525-9580",,,,,,,,,,,,,"1360 Greely Chaple Rd",,"Lima","OH",45804
146,"CC102 Lakeside Ford",,"CC102 Lakeside Ford",,,,"advantaorders@comcast.net","Ladeside Ford","000765LSF3",,"800-990-7720","seekerinc",,"yes","800-990-7720
",,,,,,,,,,,,,,,,,
145,"BB108 Patterson Nissan",,"BB108 Patterson Nissan",,,,"gpapawcarden@yahoo.com; ewatson@mailadvanta.com; rick@rcmarketingllc.com; pattersonnissan@leadcrm.com; leebourne","Patterson Nissan","556544PN45",,"800-835-9427",,,"yes",,,,,,,,,,,,,,,,,,
144,"BB107 Patterson Chrysler",,"BB107 Patterson Chrysler",,,,"bsumerford@yahoo.com; ewatson@mailadvanta.com; richT1300@aol.com; rick@rcmarketingllc.com; leebourne","Patterson Chrysler Dodge Jeep",,,"800-488-9641","seekerinc",,"yes",,,,,,,,,,,,,,,,,,
143,"BB115 Plaza Chevrolet Caddilac",,"BB115 Plaza Chevrolet Caddilac",,,,"doug@btobino.com; plaza@btobino.com","Plaza Chevrolet Cadillac","00765PCCT",,"888-809-0195","marketernet",,"yes","plaza@btobino.com
888-809-0195",,,,,,,,,,,,,"60 N Plaza Blvd",,"Chillicothe","OH",45601
142,"BB117 Tameron Honda Birmingham",,"BB117 Tameron Honda Birmingham",,,,"tameronh2@tameron.com; sandee@btobino.com; yourpreapproval@yahoo.com; ewatson@mailadvanta.com; chastings@btobino.com; tdrexel@tameron.com","Tameron Honda ",7464746720,,"888-787-1212","seekerinc",,"yes",,,,,,,,,,,,,,,,,,
141,"BB116 Tameron Daphnie",,"BB116 Tameron Daphnie",,,,"secondaryfinance@tameron.com; yourpreapproval@yahoo.com; ewatson@mailadvanta.com; sandee@btobino.com; chastings@btobino.com","Tamron Honda","885533S313",,"800-231-0240","seekerinc",,"yes",,,,,,,,,,,,,,,,,,
140,"BB105 SPARKS NISSAN KIA",,"BB105 SPARKS NISSAN KIA",,,,"steve@stevebeasley.net; bobg@sparksauto.com; william@sparksauto.com; mpd704@bellsouth.net; sandee_btobino@yahoo.com, leebourne@gmail.com; rick@rcmarketingllc.com","SPARKS NISSAN KIA","244455SNK5",,"800-488-9604","seekerinc",,"yes",,,,,,,,,,,,,,,,,,
139,"BB114 Clark Motor Co.",,"BB114 Clark Motor Co.",,,,"justin@clarkmotor.com; mike@btobino.com; clarkmtr","Clark Motor Company","00733CM45",,,"seekerinc",,"yes",,,,,,,,,,,,,,"3401 Franklin",,"Waco","TX",76710
138,"CC101 Little Rock Isuzu",,"CC101 Little Rock Isuzu",,,,"trigger@littlerockisuzu.com; advantaorders@comcast.net","Little Rock ISUZU","000744LRAA",,"800-835-9730","seekerinc",,"yes",,,,,,,,,,,,,,,,,,
137,"Dave Gill Pontiac",,"Dave Gill Pontiac",,,,"mdresselhavs@davegill.com; doug@btobino.com","Dave Gill Pontiac","000772DGP5",,"888-509-4685","marketernet",,"yes",,,,,,,,,,,,,,"4700 East Broad St",,"Columbus","OH",43213
134,"BB101 Buckeye Honda",,"BB101 Buckeye Honda",,,,"vcampbell@buckeyehonda.com; doug@btobino.com; ewatson@mailadvanta.com; ","Buckeye Honda","475564BH45",,"800-481-3109","marketernet",,"no",,,,,,,,,,,,,,,,,,
133,"BB119 Cleo Bay",,"BB119 Cleo Bay",,,,"mike@btobino.com; sbrown_cleobayhonda@gs.reyrey.com","Cleo Bay Honda","000118CBTL",,"800-738-6959","seekerinc",,"yes",,,,,,,,,,,,,,,,,,
132,"Cleo Bay t.u",,"Cleo Bay t.u",,,,"mike@btobino.com; sbrown_cleobayhonda@gs.reyrey.com","Cleo Bay Honda","000118CBTU",,"800-738-6959","marketernet",,"yes",,,,,,,,,,,,,,"3907 Centex Expressway",,"Killeen","TX",76543
131,"Max Watson",,"Max Watson",,,,"teleselect@btobino.com; dan@btobino.com","Max Watson Chevrolet","000745MW45",,"866-432-7759","marketernet",,"yes",,,,,,,,,,,,,,"3891 South Post Road",,"Indianopolis","IN",46239
130,"Highland Automotive Group",,"Highland Automotive Group",,,,"dan@btobino.com; teleselect@btobino.com; ewatson@mailadvanta.com; cassie@btobino.com","Safari Motors","007882HAG2","866-43-APPLY","866-432-7759","marketernet",,"yes","866-43-APPLY",,,,,,,,,,,,,"211 N US 31",,"Whiteland","IN",46184
129,"129 Beck Nissan",,"129 Beck Nissan",,,,"mattbuckles@becknissan.com; ewatson@mailadvanta.com","Beck Nissan","000725BN55",,"888-751-5971","seekerinc",,"yes",,,,,,,,,,,,,,"256 N. Highway 17",,"Palatka","FL",32177
128,"Bobb Chevy #2",,"Bobb Chevy #2",,,,"mike.ball@bobchevrolet.com; doug@btobino.com","Bobb Chevrolet","000752BW22",,"888-751-1940","marketernet",,"yes",,,,,,,,,,,,,,"567 East Livingston Ave.",,"Columbus","OH",43206
127,"BOBB WEST SUZUKI",,"BOBB WEST SUZUKI",,,,"doug@btobino.com; melanie.utley@bobbsuzuki.com; bobwest@btobino.com; ewatson@btobino.com","BOBB WEST ","452599B124",,"888-751-1940","marketernet",,"yes","1-888-751-1940 BOBB WEST 1 1-614-335-1414 ",,,,,,,,,,,,,"4639 W. Broad St",," Columbus","OH",43228
